OBJECT_NAME,OBJECT_ID,EPOCH,MEAN_MOTION,ECCENTRICITY,INCLINATION,RA_OF_ASC_NODE,ARG_OF_PERICENTER,MEAN_ANOMALY,EPHEMERIS_TYPE,CLASSIFICATION_TYPE,NORAD_CAT_ID,ELEMENT_SET_NO,REV_AT_EPOCH,BSTAR,MEAN_MOTION_DOT,MEAN_MOTION_DDOT
ONEWEB-0597,2022-166X,2026-07-08T09:45:59.769792,13.21825966,.00019771,87.9237,239.7646,94.6336,265.5024,0,U,54663,999,17434,-.63030336E-3,-.247E-5,0
ONEWEB-0600,2022-166Y,2026-07-08T14:46:23.755872,13.21826128,.00019376,87.9242,239.7132,104.4513,255.6836,0,U,54664,999,17434,-.20949156E-3,-.74E-6,0
ONEWEB-0601,2022-166Z,2026-07-08T16:23:16.123200,13.21824439,.00018462,87.9236,239.7167,93.2622,266.8723,0,U,54665,999,17454,-.22083271E-3,-.78E-6,0
ONEWEB-0602,2022-166AA,2026-07-08T15:33:35.459712,13.21825943,.00017723,87.9231,239.7297,101.2382,258.8951,0,U,54666,999,17438,-.92269778E-3,-.368E-5,0
ONEWEB-0603,2022-166AB,2026-07-08T15:42:04.442112,13.21827534,.00019318,87.9246,239.6881,97.9383,262.1970,0,U,54667,999,17431,.35823699E-4,.28E-6,0
ONEWEB-0604,2022-166AC,2026-07-08T15:25:06.558528,13.21823421,.00021362,87.9243,239.7067,100.4004,259.7371,0,U,54668,999,17427,-.49382176E-4,-.7E-7,0
ONEWEB-0605,2022-166AD,2026-07-08T15:15:25.671456,13.21827987,.0002076,87.9237,239.7186,79.1108,281.0260,0,U,54669,999,17434,-.1629405E-5,.12E-6,0
ONEWEB-0606,2022-166AE,2026-07-08T15:46:55.555680,13.21825174,.00021174,87.9239,239.7266,100.6905,259.4468,0,U,54670,999,17440,-.37900523E-4,-.3E-7,0
ONEWEB-0607,2022-166AF,2026-07-08T14:58:30.422208,13.21825194,.00019282,87.9239,239.7064,96.1484,263.9870,0,U,54671,999,17437,.46157094E-4,.32E-6,0
ONEWEB-0608,2022-166AG,2026-07-08T15:08:08.821824,13.21823693,.00018453,87.9252,239.7011,83.3900,276.7444,0,U,54672,999,17438,.20245676E-3,.97E-6,0
ONEWEB-0610,2022-166AH,2026-07-08T14:39:07.664832,13.21825236,.00015631,87.9233,239.7181,85.9883,274.1429,0,U,54673,999,17428,-.8627158E-4,-.23E-6,0
ONEWEB-0611,2022-166AJ,2026-07-08T16:18:24.460992,13.21825770,.00021915,87.9239,239.6997,100.3699,259.7682,0,U,54674,999,17428,-.76832541E-4,-.19E-6,0
ONEWEB-0612,2022-166AK,2026-07-08T14:48:48.804192,13.21823840,.00020591,87.9241,239.7099,93.4304,266.7066,0,U,54675,999,17426,.47896326E-3,.211E-5,0
ONEWEB-0615,2022-166AL,2026-07-08T16:08:43.165248,13.21827319,.00022069,87.9238,239.7121,103.2565,256.8815,0,U,54676,999,17428,-.24614543E-3,-.89E-6,0
ONEWEB-0655,2022-166AM,2026-07-08T15:34:48.126432,13.21827663,.00018287,87.9239,239.7173,99.6665,260.4676,0,U,54677,999,17427,.6765119E-4,.41E-6,0
ONEWEB-0659,2022-166AN,2026-07-08T15:59:01.929984,13.21823778,.00021135,87.9235,239.7141,96.9054,263.2321,0,U,54678,999,17436,-.45009724E-4,-.6E-7,0
ONEWEB-0685,2022-166AP,2026-07-08T14:09:39.872448,13.21848036,.00018203,87.9237,239.7196,84.2023,275.9318,0,U,54679,999,17424,.2047952E-5,.14E-6,0
ONEWEB-0712,2022-166AQ,2026-07-08T15:26:08.131488,13.16595318,.00017965,87.9095,224.5124,110.3298,249.8027,0,U,54680,999,17488,-.90604958E-4,-.22E-6,0
ONEWEB-0714,2022-166AR,2026-07-08T08:50:18.955680,13.21826077,.00019315,87.9237,239.7629,104.3371,255.7978,0,U,54681,999,17433,.88350557E-4,.5E-6,0
ONEWEB-0532,2023-004A,2026-07-08T18:00:21.419424,13.17648451,.00020851,87.9133,1.5735,82.9722,277.1647,0,U,55140,999,17042,.13791719E-3,.66E-6,0
ONEWEB-0533,2023-004B,2026-07-08T21:07:16.619808,13.12442740,.00016846,87.8955,346.3565,91.9248,268.2073,0,U,55141,999,17090,.10311652E-2,.384E-5,0
ONEWEB-0541,2023-004C,2026-07-08T22:14:42.021600,13.11415640,.0002021,87.8889,16.7302,89.5143,270.6217,0,U,55142,999,16879,-.12802348E-2,-.441E-5,0
ONEWEB-0543,2023-004D,2026-07-08T22:34:12.807264,13.18686989,.00017614,87.9180,331.1417,104.9320,255.2007,0,U,55143,999,17256,.23293732E-3,.105E-5,0
ONEWEB-0544,2023-004E,2026-07-08T22:24:30.027168,13.18687383,.00019547,87.9177,331.1426,103.0923,257.0427,0,U,55144,999,17256,.1193047E-3,.6E-6,0
ONEWEB-0560,2023-004F,2026-07-08T22:14:46.615488,13.18684455,.00019588,87.9181,331.1336,105.8337,254.3011,0,U,55145,999,17257,.11520443E-3,.58E-6,0
ONEWEB-0565,2023-004G,2026-07-08T22:05:05.271360,13.18686625,.00022379,87.9177,331.1603,94.2083,265.9305,0,U,55146,999,17256,.13987888E-4,.18E-6,0
ONEWEB-0567,2023-004H,2026-07-08T21:55:22.182816,13.18686980,.00021993,87.9182,331.1481,99.8525,260.2856,0,U,55147,999,17256,.19331299E-4,.21E-6,0
ONEWEB-0569,2023-004J,2026-07-08T20:54:22.542336,13.13469688,.00026277,87.8980,315.9051,117.1588,242.9810,0,U,55148,999,17302,-.24141474E-3,-.75E-6,0
ONEWEB-0570,2023-004K,2026-07-08T21:43:13.537056,13.18686880,.00020824,87.9175,331.1479,89.3778,270.7593,0,U,55149,999,17255,.75210485E-4,.43E-6,0
ONEWEB-0571,2023-004L,2026-07-08T21:33:31.610592,13.18685257,.0003094,87.9174,331.1490,108.3067,251.8402,0,U,55150,999,17256,.19933474E-3,.92E-6,0
