ONEWEB-0597             
1 54663U 22166X   26189.40694178 -.00000247  00000+0 -63030-3 0  9995
2 54663  87.9237 239.7646 0001977  94.6336 265.5024 13.21825966174340
ONEWEB-0600             
1 54664U 22166Y   26189.61555273 -.00000074  00000+0 -20949-3 0  9991
2 54664  87.9242 239.7132 0001937 104.4513 255.6836 13.21826128174342
ONEWEB-0601             
1 54665U 22166Z   26189.68282550 -.00000078  00000+0 -22083-3 0  9999
2 54665  87.9236 239.7167 0001846  93.2622 266.8723 13.21824439174543
ONEWEB-0602             
1 54666U 22166AA  26189.64832708 -.00000368  00000+0 -92270-3 0  9999
2 54666  87.9231 239.7297 0001772 101.2382 258.8951 13.21825943174381
ONEWEB-0603             
1 54667U 22166AB  26189.65421808  .00000028  00000+0  35824-4 0  9990
2 54667  87.9246 239.6881 0001931  97.9383 262.1970 13.21827534174315
ONEWEB-0604             
1 54668U 22166AC  26189.64243702 -.00000007  00000+0 -49382-4 0  9998
2 54668  87.9243 239.7067 0002136 100.4004 259.7371 13.21823421174271
ONEWEB-0605             
1 54669U 22166AD  26189.63571379  .00000012  00000+0 -16294-5 0  9994
2 54669  87.9237 239.7186 0002076  79.1108 281.0260 13.21827987174341
ONEWEB-0606             
1 54670U 22166AE  26189.65758745 -.00000003  00000+0 -37901-4 0  9990
2 54670  87.9239 239.7266 0002117 100.6905 259.4468 13.21825174174407
ONEWEB-0607             
1 54671U 22166AF  26189.62396322  .00000032  00000+0  46157-4 0  9990
2 54671  87.9239 239.7064 0001928  96.1484 263.9870 13.21825194174379
ONEWEB-0608             
1 54672U 22166AG  26189.63065766  .00000097  00000+0  20246-3 0  9998
2 54672  87.9252 239.7011 0001845  83.3900 276.7444 13.21823693174388
ONEWEB-0610             
1 54673U 22166AH  26189.61050538 -.00000023  00000+0 -86272-4 0  9991
2 54673  87.9233 239.7181 0001563  85.9883 274.1429 13.21825236174280
ONEWEB-0611             
1 54674U 22166AJ  26189.67944978 -.00000019  00000+0 -76833-4 0  9995
2 54674  87.9239 239.6997 0002191 100.3699 259.7682 13.21825770174289
ONEWEB-0612             
1 54675U 22166AK  26189.61723153  .00000211  00000+0  47896-3 0  9998
2 54675  87.9241 239.7099 0002059  93.4304 266.7066 13.21823840174263
ONEWEB-0615             
1 54676U 22166AL  26189.67272182 -.00000089  00000+0 -24615-3 0  9995
2 54676  87.9238 239.7121 0002206 103.2565 256.8815 13.21827319174288
ONEWEB-0655             
1 54677U 22166AM  26189.64916813  .00000041  00000+0  67651-4 0  9993
2 54677  87.9239 239.7173 0001828  99.6665 260.4676 13.21827663174272
ONEWEB-0659             
1 54678U 22166AN  26189.66599456 -.00000006  00000+0 -45010-4 0  9994
2 54678  87.9235 239.7141 0002113  96.9054 263.2321 13.21823778174365
ONEWEB-0685             
1 54679U 22166AP  26189.59004482  .00000014  00000+0  20480-5 0  9999
2 54679  87.9237 239.7196 0001820  84.2023 275.9318 13.21848036174245
ONEWEB-0712             
1 54680U 22166AQ  26189.64314967 -.00000022  00000+0 -90605-4 0  9995
2 54680  87.9095 224.5124 0001796 110.3298 249.8027 13.16595318174882
ONEWEB-0714             
1 54681U 22166AR  26189.36827495  .00000050  00000+0  88351-4 0  9994
2 54681  87.9237 239.7629 0001931 104.3371 255.7978 13.21826077174331
ONEWEB-0532             
1 55140U 23004A   26189.75024791  .00000066  00000+0  13792-3 0  9991
2 55140  87.9133   1.5735 0002085  82.9722 277.1647 13.17648451170422
ONEWEB-0533             
1 55141U 23004B   26189.88005347  .00000384  00000+0  10312-2 0  9999
2 55141  87.8955 346.3565 0001684  91.9248 268.2073 13.12442740170907
ONEWEB-0541             
1 55142U 23004C   26189.92687525 -.00000441  00000+0 -12802-2 0  9991
2 55142  87.8889  16.7302 0002021  89.5143 270.6217 13.11415640168793
ONEWEB-0543             
1 55143U 23004D   26189.94042601  .00000105  00000+0  23294-3 0  9997
2 55143  87.9180 331.1417 0001761 104.9320 255.2007 13.18686989172568
ONEWEB-0544             
1 55144U 23004E   26189.93368087  .00000060  00000+0  11930-3 0  9990
2 55144  87.9177 331.1426 0001954 103.0923 257.0427 13.18687383172563
ONEWEB-0560             
1 55145U 23004F   26189.92692842  .00000058  00000+0  11520-3 0  9991
2 55145  87.9181 331.1336 0001958 105.8337 254.3011 13.18684455172579
ONEWEB-0565             
1 55146U 23004G   26189.92019990  .00000018  00000+0  13988-4 0  9996
2 55146  87.9177 331.1603 0002237  94.2083 265.9305 13.18686625172566
ONEWEB-0567             
1 55147U 23004H   26189.91345119  .00000021  00000+0  19331-4 0  9993
2 55147  87.9182 331.1481 0002199  99.8525 260.2856 13.18686980172569
ONEWEB-0569             
1 55148U 23004J   26189.87109424 -.00000075  00000+0 -24141-3 0  9991
2 55148  87.8980 315.9051 0002627 117.1588 242.9810 13.13469688173025
ONEWEB-0570             
1 55149U 23004K   26189.90501779  .00000043  00000+0  75210-4 0  9992
2 55149  87.9175 331.1479 0002082  89.3778 270.7593 13.18686880172557
ONEWEB-0571             
1 55150U 23004L   26189.89828253  .00000092  00000+0  19933-3 0  9994
2 55150  87.9174 331.1490 0003094 108.3067 251.8402 13.18685257172565
